GLOBALSTAR M035         
1 25851U 99037A   25297.79465067 -.00000026  00000+0  14024-2 0  9999
2 25851  51.9911 125.9265 0013360 186.6270 187.0385 11.04540396110582
GLOBALSTAR M032         
1 25852U 99037B   25297.76181159 -.00000052  00000+0  47689-3 0  9997
2 25852  51.9963 302.2633 0012508  24.9835 335.1568 11.19063730149290
GLOBALSTAR M051         
1 25853U 99037C   25297.66088554 -.00000082  00000+0 -24567-3 0  9996
2 25853  51.9774  88.5479 0001431  98.6348 261.4625 11.42205537147183
GLOBALSTAR M030         
1 25854U 99037D   25297.53924363 -.00000106  00000+0 -65493-3 0  9990
2 25854  51.9872 246.7245 0002964 287.2878  72.7614 11.55113945164992
GLOBALSTAR M048         
1 25872U 99041A   25297.73348935 -.00000064  00000+0  16755-3 0  9991
2 25872  51.9404  28.4169 0013456  51.7129 118.0438 11.33859447139679
GLOBALSTAR M026         
1 25873U 99041B   25297.31963522 -.00000070  00000+0 -22340-3 0  9996
2 25873  52.0002 243.5835 0001798 111.1714  59.2773 11.06851229162789
GLOBALSTAR M043         
1 25874U 99041C   25297.80934779 -.00000041  00000+0  81853-3 0  9994
2 25874  51.9365 141.0478 0013512 167.4522 205.3826 11.25696629137476
GLOBALSTAR M028         
1 25875U 99041D   25297.78967080 -.00000050  00000+0  32773-3 0  9990
2 25875  51.9607 166.6126 0063465 353.7923   6.2146 12.50590459206390
